AEROCUBE 6B             
1 40046U 14033AN  26068.42625992  .00007941  00000+0  66368-3 0  9998
2 40046  97.7129 236.1645 0037452 343.2300  16.7681 14.98232474631816
STARLINK-2109           
1 47388U 21005AR  26068.20964173  .00000730  00000+0  67897-4 0  9992
2 47388  53.0555  63.7741 0001441  86.6518 273.4636 15.06406237282969
